ONEWEB-0056             
1 45159U 20008AE  24320.80910431 -.00000564  00000+0 -16523-2 0  9996
2 45159  87.8897 151.4373 0001629  91.5117 268.6197 13.10375006232438
ONEWEB-0057             
1 45160U 20008AF  24320.81576037  .00000170  00000+0  45009-3 0  9992
2 45160  87.8900 151.4419 0001642  87.4878 272.6438 13.10376413232604
ONEWEB-0062             
1 45163U 20008AJ  24320.90207506  .00000642  00000+0  18022-2 0  9995
2 45163  87.8894 151.4208 0001285  76.3941 283.7329 13.10376950232457
ONEWEB-0065             
1 45164U 20008AK  24320.80412310 -.00000709  00000+0 -20677-2 0  9991
2 45164  87.8903 151.4532 0001593  91.5655 268.5654 13.10373509232136
ONEWEB-0066             
1 45424U 20020A   24320.89346905 -.00000180  00000+0 -54321-3 0  9996
2 45424  87.8882 136.2811 0001919  84.0144 276.1202 13.11415687226888
ONEWEB-0067             
1 45425U 20020B   24320.93091418  .00000259  00000+0  69453-3 0  9995
2 45425  87.8869 136.2162 0001800  90.0321 270.1013 13.11419491226944
